{
    "links": {
        "self": "http://www.neowsapp.com/rest/v1/neo/3892164?api_key=iIulBulltgU6a56xZRHN4H3l9WmuAYTsLGpBGhQ2"
    },
    "id": "3892164",
    "neo_reference_id": "3892164",
    "name": "(2019 UO13)",
    "designation": "2019 UO13",
    "nasa_jpl_url": "http://ssd.jpl.nasa.gov/sbdb.cgi?sstr=3892164",
    "absolute_magnitude_h": 23.8,
    "estimated_diameter": {
        "kilometers": {
            "estimated_diameter_min": 0.046190746,
            "estimated_diameter_max": 0.1032856481
        },
        "meters": {
            "estimated_diameter_min": 46.1907460282,
            "estimated_diameter_max": 103.2856480504
        },
        "miles": {
            "estimated_diameter_min": 0.0287015901,
            "estimated_diameter_max": 0.0641787064
        },
        "feet": {
            "estimated_diameter_min": 151.544447199,
            "estimated_diameter_max": 338.8636855496
        }
    },
    "is_potentially_hazardous_asteroid": false,
    "close_approach_data": [
        {
            "close_approach_date": "1985-06-20",
            "close_approach_date_full": "1985-Jun-20 12:31",
            "epoch_date_close_approach": 488118660000,
            "relative_velocity": {
                "kilometers_per_second": "10.5745181621",
                "kilometers_per_hour": "38068.2653836093",
                "miles_per_hour": "23654.1396768321"
            },
            "miss_distance": {
                "astronomical": "0.078936377",
                "lunar": "30.706250653",
                "kilometers": "11808713.86471699",
                "miles": "7337594.546754862"
            },
            "orbiting_body": "Mars"
        },
        {
            "close_approach_date": "2019-10-31",
            "close_approach_date_full": "2019-Oct-31 08:14",
            "epoch_date_close_approach": 1572509640000,
            "relative_velocity": {
                "kilometers_per_second": "9.6610480427",
                "kilometers_per_hour": "34779.7729537032",
                "miles_per_hour": "21610.7983667052"
            },
            "miss_distance": {
                "astronomical": "0.0137208628",
                "lunar": "5.3374156292",
                "kilometers": "2052611.849442236",
                "miles": "1275433.8605894168"
            },
            "orbiting_body": "Earth"
        }
    ],
    "orbital_data": {
        "orbit_id": "20",
        "orbit_determination_date": "2019-12-10 04:52:46",
        "first_observation_date": "2019-10-31",
        "last_observation_date": "2019-12-02",
        "data_arc_in_days": 32,
        "observations_used": 325,
        "orbit_uncertainty": "6",
        "minimum_orbit_intersection": ".00605636",
        "jupiter_tisserand_invariant": "3.481",
        "epoch_osculation": "2459000.5",
        "eccentricity": ".5564130167362045",
        "semi_major_axis": "2.157519126993885",
        "inclination": "1.787604670342616",
        "ascending_node_longitude": "23.11801765030958",
        "orbital_period": "1157.525077521117",
        "perihelion_distance": ".9570474008771553",
        "perihelion_argument": "345.3791857111059",
        "aphelion_distance": "3.357990853110616",
        "perihelion_time": "2458765.642831547497",
        "mean_anomaly": "73.0425476603626",
        "mean_motion": ".3110083807177235",
        "equinox": "J2000",
        "orbit_class": {
            "orbit_class_type": "APO",
            "orbit_class_description": "Near-Earth asteroid orbits which cross the Earth’s orbit similar to that of 1862 Apollo",
            "orbit_class_range": "a (semi-major axis) > 1.0 AU; q (perihelion) < 1.017 AU"
        }
    },
    "is_sentry_object": false
}